ONEWEB-0395             
1 50475U 21132G   26160.61367126  .00000403  00000+0  11023-2 0  9992
2 50475  87.8889  22.5751 0001945  89.5448 270.5903 13.11415949214720
ONEWEB-0396             
1 50476U 21132H   26160.73133410  .00000007  00000+0 -14337-4 0  9997
2 50476  87.9168 336.9382 0001960  87.5509 272.5847 13.18684787220650
ONEWEB-0397             
1 50477U 21132J   26160.74651378  .00000087  00000+0  18667-3 0  9993
2 50477  87.9169 336.9355 0001943  83.9423 276.1930 13.18684951220632
ONEWEB-0398             
1 50478U 21132K   26160.35254619 -.00000160  00000+0 -48811-3 0  9996
2 50478  87.8901  22.6173 0001834  93.9893 266.1445 13.11420243214586
ONEWEB-0399             
1 50479U 21132L   26160.64417210 -.00000708  00000+0 -20339-2 0  9999
2 50479  87.8900  22.5699 0002255  77.1032 283.0348 13.11417107214614
ONEWEB-0400             
1 50480U 21132M   26160.72459646  .00000047  00000+0  85376-4 0  9997
2 50480  87.9168 336.9293 0001871  96.5713 263.5633 13.18686000220624
ONEWEB-0401             
1 50481U 21132N   26160.77011817  .00000021  00000+0  20768-4 0  9993
2 50481  87.9170 336.9175 0001691  84.4013 275.7312 13.18684598220636
ONEWEB-0402             
1 50482U 21132P   26160.73303629 -.00000031  00000+0 -11174-3 0  9998
2 50482  87.9166 336.9142 0001669  75.9621 284.1696 13.18685651220653
ONEWEB-0403             
1 50483U 21132Q   26160.75831451  .00000072  00000+0  14912-3 0  9996
2 50483  87.9168 336.9336 0002002  90.3353 269.8008 13.18684588220617
ONEWEB-0404             
1 50484U 21132R   26160.54923569 -.00000001  00000+0 -37815-4 0  9998
2 50484  87.8896  22.5874 0002135  84.7596 275.3775 13.11415272214692
ONEWEB-0405             
1 50485U 21132S   26160.77181723  .00000061  00000+0  12109-3 0  9994
2 50485  87.9171 336.9152 0001874 105.0816 255.0523 13.18686176221012
ONEWEB-0406             
1 50486U 21132T   26160.76337615  .00000080  00000+0  17025-3 0  9990
2 50486  87.9164 336.9338 0002394  89.1047 271.0359 13.18684723220646
ONEWEB-0407             
1 50487U 21132U   26160.75663743  .00000078  00000+0  16561-3 0  9995
2 50487  87.9169 336.9270 0001621  91.7755 268.3563 13.18684955220580
ONEWEB-0409             
1 50488U 21132V   26160.62383333  .00000070  00000+0  16307-3 0  9996
2 50488  87.8899  22.5604 0002078  87.6094 272.5272 13.11415810214599
ONEWEB-0412             
1 50489U 21132W   26160.74482392  .00000035  00000+0  56623-4 0  9992
2 50489  87.9166 336.9378 0001724  82.0216 278.1112 13.18684827220674
ONEWEB-0413             
1 50490U 21132X   26160.74988926  .00000439  00000+0  10800-2 0  9991
2 50490  87.9157 336.9362 0001564  85.0256 275.1055 13.18683378220615
ONEWEB-0414             
1 50491U 21132Y   26160.73471387  .00000026  00000+0  34240-4 0  9997
2 50491  87.9167 336.9202 0001891  85.3029 274.8319 13.18685447220645
ONEWEB-0417             
1 50492U 21132Z   26160.74314326  .00000072  00000+0  14881-3 0  9997
2 50492  87.9159 336.9389 0002091  91.4416 268.6956 13.18685350220623
ONEWEB-0418             
1 50493U 21132AA  26160.75313161  .00000104  00000+0  23073-3 0  9994
2 50493  87.9171 336.9360 0002134  92.3012 267.8365 13.18684904220682
ONEWEB-0419             
1 50494U 21132AB  26160.77160957  .00000055  00000+0  10696-3 0  9992
2 50494  87.9170 336.9316 0002049  97.1920 262.9445 13.18665493220608
ONEWEB-0420             
1 50495U 21132AC  26160.73639785  .00000006  00000+0 -17871-4 0  9999
2 50495  87.9159 336.9422 0001645  92.7145 267.4176 13.18685765220598
ONEWEB-0421             
1 50496U 21132AD  26160.72964888  .00000009  00000+0 -10851-4 0  9998
2 50496  87.9163 336.9408 0001917  79.2814 280.8534 13.18684897220630
ONEWEB-0424             
1 50497U 21132AE  26160.76674846  .00000071  00000+0  14840-3 0  9994
2 50497  87.9165 336.9314 0001994 101.2321 258.9035 13.18684776220664
ONEWEB-0426             
1 50498U 21132AF  26160.72544264 -.00000004  00000+0 -41737-4 0  9995
2 50498  87.9167 336.9305 0002425  79.8898 280.2508 13.18688874220606
ONEWEB-0427             
1 50499U 21132AG  26160.76506268  .00000053  00000+0  10262-3 0  9992
2 50499  87.9169 336.9114 0002071  90.4993 269.6376 13.18684595220632
ONEWEB-0429             
1 50500U 21132AH  26160.75157557  .00000084  00000+0  18043-3 0  9996
2 50500  87.9162 336.9393 0001727  91.1426 268.9904 13.18685243220600
ONEWEB-0430             
1 50501U 21132AJ  26160.73977094  .00000040  00000+0  68184-4 0  9995
2 50501  87.9161 336.9398 0001710  98.3129 261.8197 13.18686131220643
ONEWEB-0432             
1 50502U 21132AK  26160.91668981  .00000844  00000+0  21516-2 0  9996
2 50502  87.9173 336.8780 0002391 116.3191 197.5760 13.17308946  5014
ONEWEB-0440             
1 50503U 21132AL  26160.53237192  .00000047  00000+0  86408-4 0  9999
2 50503  87.9167 336.9767 0001656  81.7617 278.3703 13.18684856220567
ONEWEB-0450             
1 50504U 21132AM  26160.75340396  .00000057  00000+0  11112-3 0  9995
2 50504  87.9157 336.9386 0001652  93.1702 266.9619 13.18685844220626
