OBJECT_NAME,OBJECT_ID,EPOCH,MEAN_MOTION,ECCENTRICITY,INCLINATION,RA_OF_ASC_NODE,ARG_OF_PERICENTER,MEAN_ANOMALY,EPHEMERIS_TYPE,CLASSIFICATION_TYPE,NORAD_CAT_ID,ELEMENT_SET_NO,REV_AT_EPOCH,BSTAR,MEAN_MOTION_DOT,MEAN_MOTION_DDOT
ONEWEB-0395,2021-132G,2026-06-09T14:43:41.196864,13.11415949,.00019458,87.8889,22.5751,89.5448,270.5903,0,U,50475,999,21472,.11023366E-2,.403E-5,0
ONEWEB-0396,2021-132H,2026-06-09T17:33:07.266240,13.18684787,.00019602,87.9168,336.9382,87.5509,272.5847,0,U,50476,999,22065,-.14337317E-4,.7E-7,0
ONEWEB-0397,2021-132J,2026-06-09T17:54:58.790592,13.18684951,.00019432,87.9169,336.9355,83.9423,276.1930,0,U,50477,999,22063,.18666843E-3,.87E-6,0
ONEWEB-0398,2021-132K,2026-06-09T08:27:39.990816,13.11420243,.00018346,87.8901,22.6173,93.9893,266.1445,0,U,50478,999,21458,-.48811378E-3,-.16E-5,0
ONEWEB-0399,2021-132L,2026-06-09T15:27:36.469440,13.11417107,.00022555,87.8900,22.5699,77.1032,283.0348,0,U,50479,999,21461,-.20338759E-2,-.708E-5,0
ONEWEB-0400,2021-132M,2026-06-09T17:23:25.134144,13.18686000,.0001871,87.9168,336.9293,96.5713,263.5633,0,U,50480,999,22062,.85376159E-4,.47E-6,0
ONEWEB-0401,2021-132N,2026-06-09T18:28:58.209888,13.18684598,.00016916,87.9170,336.9175,84.4013,275.7312,0,U,50481,999,22063,.20767957E-4,.21E-6,0
ONEWEB-0402,2021-132P,2026-06-09T17:35:34.335456,13.18685651,.00016693,87.9166,336.9142,75.9621,284.1696,0,U,50482,999,22065,-.11173932E-3,-.31E-6,0
ONEWEB-0403,2021-132Q,2026-06-09T18:11:58.373664,13.18684588,.0002002,87.9168,336.9336,90.3353,269.8008,0,U,50483,999,22061,.14911961E-3,.72E-6,0
ONEWEB-0404,2021-132R,2026-06-09T13:10:53.963616,13.11415272,.00021358,87.8896,22.5874,84.7596,275.3775,0,U,50484,999,21469,-.37815255E-4,-.1E-7,0
ONEWEB-0405,2021-132S,2026-06-09T18:31:25.008672,13.18686176,.00018748,87.9171,336.9152,105.0816,255.0523,0,U,50485,999,22101,.12109349E-3,.61E-6,0
ONEWEB-0406,2021-132T,2026-06-09T18:19:15.699360,13.18684723,.00023945,87.9164,336.9338,89.1047,271.0359,0,U,50486,999,22064,.17024562E-3,.8E-6,0
ONEWEB-0407,2021-132U,2026-06-09T18:09:33.473952,13.18684955,.00016214,87.9169,336.9270,91.7755,268.3563,0,U,50487,999,22058,.16560845E-3,.78E-6,0
ONEWEB-0409,2021-132V,2026-06-09T14:58:19.199712,13.11415810,.00020788,87.8899,22.5604,87.6094,272.5272,0,U,50488,999,21459,.16307337E-3,.7E-6,0
ONEWEB-0412,2021-132W,2026-06-09T17:52:32.786688,13.18684827,.00017241,87.9166,336.9378,82.0216,278.1112,0,U,50489,999,22067,.56622705E-4,.35E-6,0
ONEWEB-0413,2021-132X,2026-06-09T17:59:50.432064,13.18683378,.00015648,87.9157,336.9362,85.0256,275.1055,0,U,50490,999,22061,.10800175E-2,.439E-5,0
ONEWEB-0414,2021-132Y,2026-06-09T17:37:59.278368,13.18685447,.0001891,87.9167,336.9202,85.3029,274.8319,0,U,50491,999,22064,.34240216E-4,.26E-6,0
ONEWEB-0417,2021-132Z,2026-06-09T17:50:07.577664,13.18685350,.00020917,87.9159,336.9389,91.4416,268.6956,0,U,50492,999,22062,.14881008E-3,.72E-6,0
ONEWEB-0418,2021-132AA,2026-06-09T18:04:30.571104,13.18684904,.00021346,87.9171,336.9360,92.3012,267.8365,0,U,50493,999,22068,.23073197E-3,.104E-5,0
ONEWEB-0419,2021-132AB,2026-06-09T18:31:07.066848,13.18665493,.0002049,87.9170,336.9316,97.1920,262.9445,0,U,50494,999,22060,.10696262E-3,.55E-6,0
ONEWEB-0420,2021-132AC,2026-06-09T17:40:24.774240,13.18685765,.00016455,87.9159,336.9422,92.7145,267.4176,0,U,50495,999,22059,-.17871384E-4,.6E-7,0
ONEWEB-0421,2021-132AD,2026-06-09T17:30:41.663232,13.18684897,.00019173,87.9163,336.9408,79.2814,280.8534,0,U,50496,999,22063,-.10850607E-4,.9E-7,0
ONEWEB-0424,2021-132AE,2026-06-09T18:24:07.066944,13.18684776,.00019941,87.9165,336.9314,101.2321,258.9035,0,U,50497,999,22066,.1484044E-3,.71E-6,0
ONEWEB-0426,2021-132AF,2026-06-09T17:24:38.244096,13.18688874,.00024258,87.9167,336.9305,79.8898,280.2508,0,U,50498,999,22060,-.41736539E-4,-.4E-7,0
ONEWEB-0427,2021-132AG,2026-06-09T18:21:41.415552,13.18684595,.00020713,87.9169,336.9114,90.4993,269.6376,0,U,50499,999,22063,.10262239E-3,.53E-6,0
ONEWEB-0429,2021-132AH,2026-06-09T18:02:16.129248,13.18685243,.00017271,87.9162,336.9393,91.1426,268.9904,0,U,50500,999,22060,.18043362E-3,.84E-6,0
ONEWEB-0430,2021-132AJ,2026-06-09T17:45:16.209216,13.18686131,.00017106,87.9161,336.9398,98.3129,261.8197,0,U,50501,999,22064,.68184181E-4,.4E-6,0
ONEWEB-0432,2021-132AK,2026-06-09T22:00:01.999584,13.17308946,.00023911,87.9173,336.8780,116.3191,197.5760,0,U,50502,999,501,.21515838E-2,.844E-5,0
ONEWEB-0440,2021-132AL,2026-06-09T12:46:36.933888,13.18684856,.00016569,87.9167,336.9767,81.7617,278.3703,0,U,50503,999,22056,.86407632E-4,.47E-6,0
ONEWEB-0450,2021-132AM,2026-06-09T18:04:54.102144,13.18685844,.00016528,87.9157,336.9386,93.1702,266.9619,0,U,50504,999,22062,.11112318E-3,.57E-6,0
